H1 CPF  2  DGF 2024 03 12 08 072 01 lares2     NONE      
H2  2208001 5988    53105 2024 03 12 00 00 00 2024 03 19 00 00 00    60 1 1  0 0 0 1
H5  0.1740
H9
10 0 60381  28800.000000  0       1749821.400       5117069.969      10999126.645
10 0 60381  28860.000000  0       1586639.893       5378749.131      10898508.297
10 0 60381  28920.000000  0       1424532.131       5637768.315      10789400.509
10 0 60381  28980.000000  0       1263596.946       5893920.872      10671887.902
10 0 60381  29040.000000  0       1103930.485       6147001.455      10546061.656
10 0 60381  29100.000000  0        945626.157       6396806.210      10412019.436
10 0 60381  29160.000000  0        788774.569       6643132.944      10269865.319
10 0 60381  29220.000000  0        633463.475       6885781.315      10119709.718
10 0 60381  29280.000000  0        479777.724       7124553.004       9961669.292
10 0 60381  29340.000000  0        327799.218       7359251.896       9795866.861
10 0 60381  29400.000000  0        177606.866       7589684.253       9622431.310
10 0 60381  29460.000000  0         29276.545       7815658.893       9441497.488
10 0 60381  29520.000000  0       -117118.934       8036987.360       9253206.109
10 0 60381  29580.000000  0       -261509.856       8253484.099       9057703.637
10 0 60381  29640.000000  0       -403829.632       8464966.623       8855142.178
10 0 60381  29700.000000  0       -544014.820       8671255.684       8645679.361
10 0 60381  29760.000000  0       -682005.146       8872175.435       8429478.215
10 0 60381  29820.000000  0       -817743.523       9067553.598       8206707.042
10 0 60381  29880.000000  0       -951176.057       9257221.620       7977539.288
10 0 60381  29940.000000  0      -1082252.061       9441014.835       7742153.407
10 0 60381  30000.000000  0      -1210924.057       9618772.619       7500732.722
10 0 60381  30060.000000  0      -1337147.778       9790338.538       7253465.282
10 0 60381  30120.000000  0      -1460882.162       9955560.503       7000543.716
10 0 60381  30180.000000  0      -1582089.353      10114290.913       6742165.082
10 0 60381  30240.000000  0      -1700734.683      10266386.794       6478530.711
10 0 60381  30300.000000  0      -1816786.660      10411709.944       6209846.052
10 0 60381  30360.000000  0      -1930216.955      10550127.063       5936320.509
10 0 60381  30420.000000  0      -2041000.376      10681509.885       5658167.277
10 0 60381  30480.000000  0      -2149114.846      10805735.307       5375603.176
10 0 60381  30540.000000  0      -2254541.373      10922685.505       5088848.477
10 0 60381  30600.000000  0      -2357264.022      11032248.061       4798126.732
10 0 60381  30660.000000  0      -2457269.875      11134316.069       4503664.597
10 0 60381  30720.000000  0      -2554549.000      11228788.247       4205691.651
10 0 60381  30780.000000  0      -2649094.403      11315569.041       3904440.220
10 0 60381  30840.000000  0      -2740901.987      11394568.725       3600145.187
10 0 60381  30900.000000  0      -2829970.506      11465703.492       3293043.811
10 0 60381  30960.000000  0      -2916301.509      11528895.547       2983375.541
10 0 60381  31020.000000  0      -2999899.292      11584073.189       2671381.820
10 0 60381  31080.000000  0      -3080770.840      11631170.890       2357305.901
10 0 60381  31140.000000  0      -3158925.767      11670129.366       2041392.652
10 0 60381  31200.000000  0      -3234376.253      11700895.650       1723888.360
10 0 60381  31260.000000  0      -3307136.985      11723423.148       1405040.542
10 0 60381  31320.000000  0      -3377225.085      11737671.699       1085097.743
10 0 60381  31380.000000  0      -3444660.041      11743607.626        764309.343
10 0 60381  31440.000000  0      -3509463.640      11741203.780        442925.358
10 0 60381  31500.000000  0      -3571659.890      11730439.577        121196.245
10 0 60381  31560.000000  0      -3631274.944      11711301.037       -200627.300
10 0 60381  31620.000000  0      -3688337.028      11683780.805       -522294.537
10 0 60381  31680.000000  0      -3742876.354      11647878.179       -843554.881
10 0 60381  31740.000000  0      -3794925.043      11603599.118      -1164158.099
10 0 60381  31800.000000  0      -3844517.042      11550956.260      -1483854.509
10 0 60381  31860.000000  0      -3891688.039      11489968.916      -1802395.177
10 0 60381  31920.000000  0      -3936475.375      11420663.077      -2119532.110
10 0 60381  31980.000000  0      -3978917.962      11343071.399      -2435018.454
10 0 60381  32040.000000  0      -4019056.189      11257233.191      -2748608.689
10 0 60381  32100.000000  0      -4056931.836      11163194.395      -3060058.817
10 0 60381  32160.000000  0      -4092587.984      11061007.558      -3369126.560
10 0 60381  32220.000000  0      -4126068.923      10950731.799      -3675571.543
10 0 60381  32280.000000  0      -4157420.059      10832432.775      -3979155.490
10 0 60381  32340.000000  0      -4186687.825      10706182.632      -4279642.402
10 0 60381  32400.000000  0      -4213919.587      10572059.959      -4576798.747
10 0 60381  32460.000000  0      -4239163.550      10430149.729      -4870393.639
10 0 60381  32520.000000  0      -4262468.666      10280543.240      -5160199.021
10 0 60381  32580.000000  0      -4283884.541      10123338.047      -5445989.837
10 0 60381  32640.000000  0      -4303461.343       9958637.889      -5727544.214
10 0 60381  32700.000000  0      -4321249.706       9786552.614      -6004643.624
10 0 60381  32760.000000  0      -4337300.640       9607198.091      -6277073.065
10 0 60381  32820.000000  0      -4351665.441       9420696.126      -6544621.215
10 0 60381  32880.000000  0      -4364395.595       9227174.363      -6807080.604
10 0 60381  32940.000000  0      -4375542.690       9026766.190      -7064247.769
10 0 60381  33000.000000  0      -4385158.325       8819610.631      -7315923.411
10 0 60381  33060.000000  0      -4393294.024       8605852.239      -7561912.549
10 0 60381  33120.000000  0      -4400001.143       8385640.984      -7802024.667
10 0 60381  33180.000000  0      -4405330.788       8159132.128      -8036073.861
10 0 60381  33240.000000  0      -4409333.726       7926486.110      -8263878.983
10 0 60381  33300.000000  0      -4412060.302       7687868.412      -8485263.772
10 0 60381  33360.000000  0      -4413560.358       7443449.432      -8700056.994
10 0 60381  33420.000000  0      -4413883.149       7193404.343      -8908092.570
10 0 60381  33480.000000  0      -4413077.266       6937912.957      -9109209.701
10 0 60381  33540.000000  0      -4411190.556       6677159.578      -9303252.989
10 0 60381  33600.000000  0      -4408270.048       6411332.857      -9490072.554
10 0 60381  33660.000000  0      -4404361.880       6140625.635      -9669524.149
10 0 60381  33720.000000  0      -4399511.223       5865234.795      -9841469.264
10 0 60381  33780.000000  0      -4393762.217       5585361.098     -10005775.234
10 0 60381  33840.000000  0      -4387157.900       5301209.020     -10162315.333
10 0 60381  33900.000000  0      -4379740.142       5012986.594     -10310968.874
10 0 60381  33960.000000  0      -4371549.587       4720905.234     -10451621.294
10 0 60381  34020.000000  0      -4362625.586       4425179.570     -10584164.243
10 0 60381  34080.000000  0      -4353006.146       4126027.271     -10708495.660
10 0 60381  34140.000000  0      -4342727.870       3823668.871     -10824519.852
10 0 60381  34200.000000  0      -4331825.906       3518327.588     -10932147.560
10 0 60381  34260.000000  0      -4320333.899       3210229.146     -11031296.032
10 0 60381  34320.000000  0      -4308283.941       2899601.594     -11121889.074
10 0 60381  34380.000000  0      -4295706.528       2586675.115     -11203857.115
10 0 60381  34440.000000  0      -4282630.520       2271681.845     -11277137.250
10 0 60381  34500.000000  0      -4269083.100       1954855.685     -11341673.290
10 0 60381  34560.000000  0      -4255089.740       1636432.107     -11397415.804
10 0 60381  34620.000000  0      -4240674.170       1316647.969     -11444322.147
10 0 60381  34680.000000  0      -4225858.347        995741.319     -11482356.501
10 0 60381  34740.000000  0      -4210662.426        673951.205     -11511489.890
10 0 60381  34800.000000  0      -4195104.741        351517.479     -11531700.210
10 0 60381  34860.000000  0      -4179201.786         28680.604     -11542972.236
10 0 60381  34920.000000  0      -4162968.191       -294318.541     -11545297.637
10 0 60381  34980.000000  0      -4146416.714       -617238.858     -11538674.980
10 0 60381  35040.000000  0      -4129558.231       -939839.221     -11523109.729
10 0 60381  35100.000000  0      -4112401.723      -1261878.676     -11498614.240
10 0 60381  35160.000000  0      -4094954.276      -1583116.634     -11465207.753
10 0 60381  35220.000000  0      -4077221.080      -1903313.066     -11422916.374
10 0 60381  35280.000000  0      -4059205.428      -2222228.700     -11371773.054
10 0 60381  35340.000000  0      -4040908.723      -2539625.213     -11311817.568
10 0 60381  35400.000000  0      -4022330.488      -2855265.422     -11243096.479
10 0 60381  35460.000000  0      -4003468.374      -3168913.482     -11165663.107
10 0 60381  35520.000000  0      -3984318.177      -3480335.074     -11079577.486
10 0 60381  35580.000000  0      -3964873.854      -3789297.594     -10984906.318
10 0 60381  35640.000000  0      -3945127.546      -4095570.346     -10881722.927
10 0 60381  35700.000000  0      -3925069.599      -4398924.726     -10770107.196
10 0 60381  35760.000000  0      -3904688.594      -4699134.407     -10650145.516
10 0 60381  35820.000000  0      -3883971.374      -4995975.525     -10521930.713
10 0 60381  35880.000000  0      -3862903.078      -5289226.863     -10385561.982
10 0 60381  35940.000000  0      -3841467.177      -5578670.024     -10241144.812
99